{
  "id": 2048166445,
  "type": "Feature",
  "properties": {
    "date:cessation_lower": "2027-03-14",
    "date:cessation_upper": "2027-03-14",
    "date:inception_lower": "2026-08-01",
    "date:inception_upper": "2026-08-01",
    "edtf:cessation": "2027-03-14",
    "edtf:inception": "2026-08-01",
    "flysfo:url": "",
    "geom:area": 0,
    "geom:bbox": "-122.383466,37.617599,-122.383466,37.617599",
    "geom:latitude": 37.617598890046914,
    "geom:longitude": -122.38346599781815,
    "mz:is_current": 1,
    "sfo:level": 2,
    "sfomuseum:date_end": "2027-03-14",
    "sfomuseum:date_start": "2026-08-01",
    "sfomuseum:description": "",
    "sfomuseum:exhibition_id": 2209,
    "sfomuseum:gallery_id": [
      83
    ],
    "sfomuseum:has_brochure": 0,
    "sfomuseum:has_catalog": 0,
    "sfomuseum:hashtag": "",
    "sfomuseum:on_display": 1,
    "sfomuseum:placetype": "exhibition",
    "sfomuseum:post_security": 1,
    "sfomuseum:type": "Photography",
    "src:geom": "sfomuseum",
    "wof:belongsto": [
      1947304067,
      102527513,
      1947304595,
      102191575,
      85633793,
      102087579,
      1947304635,
      85922583,
      554784711,
      85688637,
      1947304591,
      102085387
    ],
    "wof:country": "US",
    "wof:created": 1787794500,
    "wof:geomhash": "d73f192fa046af92be5920623b8f7318",
    "wof:hierarchy": [
      {
        "building_id": 1947304067,
        "campus_id": 102527513,
        "concourse_id": 1947304595,
        "continent_id": 102191575,
        "country_id": 85633793,
        "county_id": 102087579,
        "enclosure_id": 1947304635,
        "installation_id": 2048166445,
        "locality_id": 85922583,
        "postalcode_id": 554784711,
        "region_id": 85688637,
        "wing_id": 1947304591
      },
      {
        "building_id": 1947304067,
        "campus_id": 102527513,
        "concourse_id": 1947304595,
        "continent_id": 102191575,
        "country_id": 85633793,
        "county_id": 102085387,
        "enclosure_id": 1947304635,
        "installation_id": 2048166445,
        "region_id": 85688637,
        "wing_id": 1947304591
      }
    ],
    "wof:id": 2048166445,
    "wof:lastmodified": 1787794500,
    "wof:name": "Jim Marshall: Two Sides of the Same Coin",
    "wof:parent_id": 1947304635,
    "wof:placetype": "installation",
    "wof:placetype_alt": "exhibition",
    "wof:repo": "sfomuseum-data-exhibition",
    "wof:superseded_by": [],
    "wof:supersedes": []
  },
  "bbox": [
    -122.38346599781815,
    37.617598890046914,
    -122.38346599781815,
    37.617598890046914
  ],
  "geometry": {"type":"MultiPoint","coordinates":[[-122.38346599781815,37.617598890046914]]}
}
