{
  "id": 2048237467,
  "type": "Feature",
  "properties": {
    "date:cessation_lower": "2027-08-22",
    "date:cessation_upper": "2027-08-22",
    "date:inception_lower": "2026-09-05",
    "date:inception_upper": "2026-09-05",
    "edtf:cessation": "2027-08-22",
    "edtf:inception": "2026-09-05",
    "flysfo:url": "",
    "geom:area": 0,
    "geom:bbox": "-122.382108,37.617417,-122.382108,37.617417",
    "geom:latitude": 37.61741735957677,
    "geom:longitude": -122.38210800323661,
    "mz:is_current": 1,
    "sfo:level": 2,
    "sfomuseum:date_end": "2027-08-22",
    "sfomuseum:date_start": "2026-09-05",
    "sfomuseum:description": "",
    "sfomuseum:exhibition_id": 2152,
    "sfomuseum:gallery_id": [
      58
    ],
    "sfomuseum:has_brochure": 0,
    "sfomuseum:has_catalog": 0,
    "sfomuseum:hashtag": "",
    "sfomuseum:on_display": 1,
    "sfomuseum:placetype": "exhibition",
    "sfomuseum:post_security": 1,
    "sfomuseum:type": "NonAviation",
    "src:geom": "sfomuseum",
    "wof:belongsto": [
      1947304067,
      102527513,
      1947304595,
      102191575,
      85633793,
      102087579,
      1947304639,
      85922583,
      554784711,
      85688637,
      1947304591,
      102085387
    ],
    "wof:country": "US",
    "wof:created": 1788506591,
    "wof:geomhash": "bf862873e946e18617d649c76666341b",
    "wof:hierarchy": [
      {
        "building_id": 1947304067,
        "campus_id": 102527513,
        "concourse_id": 1947304595,
        "continent_id": 102191575,
        "country_id": 85633793,
        "county_id": 102087579,
        "enclosure_id": 1947304639,
        "installation_id": 2048237467,
        "locality_id": 85922583,
        "postalcode_id": 554784711,
        "region_id": 85688637,
        "wing_id": 1947304591
      },
      {
        "building_id": 1947304067,
        "campus_id": 102527513,
        "concourse_id": 1947304595,
        "continent_id": 102191575,
        "country_id": 85633793,
        "county_id": 102085387,
        "enclosure_id": 1947304639,
        "installation_id": 2048237467,
        "region_id": 85688637,
        "wing_id": 1947304591
      }
    ],
    "wof:id": 2048237467,
    "wof:lastmodified": 1788506591,
    "wof:name": "One Step Beyond",
    "wof:parent_id": 1947304639,
    "wof:placetype": "installation",
    "wof:placetype_alt": "exhibition",
    "wof:repo": "sfomuseum-data-exhibition",
    "wof:superseded_by": [],
    "wof:supersedes": []
  },
  "bbox": [
    -122.38210800323661,
    37.61741735957677,
    -122.38210800323661,
    37.61741735957677
  ],
  "geometry": {"type":"MultiPoint","coordinates":[[-122.38210800323661,37.61741735957677]]}
}
