{
  "id": 2048166437,
  "type": "Feature",
  "properties": {
    "date:cessation_lower": "2027-03-07",
    "date:cessation_upper": "2027-03-07",
    "date:inception_lower": "2026-08-01",
    "date:inception_upper": "2026-08-01",
    "edtf:cessation": "2027-03-07",
    "edtf:inception": "2026-08-01",
    "flysfo:url": "",
    "geom:area": 0,
    "geom:bbox": "-122.384620,37.614113,-122.384620,37.614113",
    "geom:latitude": 37.614113087815774,
    "geom:longitude": -122.38461961187014,
    "mz:is_current": 1,
    "sfo:level": 2,
    "sfomuseum:date_end": "2027-03-07",
    "sfomuseum:date_start": "2026-08-01",
    "sfomuseum:description": "",
    "sfomuseum:exhibition_id": 2208,
    "sfomuseum:gallery_id": [
      76
    ],
    "sfomuseum:has_brochure": 0,
    "sfomuseum:has_catalog": 0,
    "sfomuseum:hashtag": "",
    "sfomuseum:on_display": 1,
    "sfomuseum:placetype": "exhibition",
    "sfomuseum:post_security": 1,
    "sfomuseum:type": "Photography",
    "src:geom": "sfomuseum",
    "wof:belongsto": [
      1947304067,
      102527513,
      1947304383,
      102191575,
      85633793,
      102087579,
      1947304393,
      85922583,
      554784711,
      85688637,
      1947304259,
      102085387
    ],
    "wof:country": "US",
    "wof:created": 1787794499,
    "wof:geomhash": "2c8f21faa1e7c054af0bacbcf27767f2",
    "wof:hierarchy": [
      {
        "building_id": 1947304067,
        "campus_id": 102527513,
        "concourse_id": 1947304383,
        "continent_id": 102191575,
        "country_id": 85633793,
        "county_id": 102087579,
        "enclosure_id": 1947304393,
        "installation_id": 2048166437,
        "locality_id": 85922583,
        "postalcode_id": 554784711,
        "region_id": 85688637,
        "wing_id": 1947304259
      },
      {
        "building_id": 1947304067,
        "campus_id": 102527513,
        "concourse_id": 1947304383,
        "continent_id": 102191575,
        "country_id": 85633793,
        "county_id": 102085387,
        "enclosure_id": 1947304393,
        "installation_id": 2048166437,
        "region_id": 85688637,
        "wing_id": 1947304259
      }
    ],
    "wof:id": 2048166437,
    "wof:lastmodified": 1788333977,
    "wof:name": "Charlotte Dumas: Retrieved",
    "wof:parent_id": 1947304393,
    "wof:placetype": "installation",
    "wof:placetype_alt": "exhibition",
    "wof:repo": "sfomuseum-data-exhibition",
    "wof:superseded_by": [],
    "wof:supersedes": []
  },
  "bbox": [
    -122.38461961187014,
    37.614113087815774,
    -122.38461961187014,
    37.614113087815774
  ],
  "geometry": {"type":"MultiPoint","coordinates":[[-122.38461961187014,37.614113087815774]]}
}
