{
  "id": 2031305989,
  "type": "Feature",
  "properties": {
    "date:cessation_lower": "2026-12-06",
    "date:cessation_upper": "2026-12-06",
    "date:inception_lower": "2026-05-23",
    "date:inception_upper": "2026-05-23",
    "edtf:cessation": "2026-12-06",
    "edtf:inception": "2026-05-23",
    "flysfo:url": "",
    "geom:area": 0,
    "geom:bbox": "-122.384921,37.617924,-122.384921,37.617924",
    "geom:latitude": 37.617923793113434,
    "geom:longitude": -122.3849209067321,
    "mz:is_current": 1,
    "sfo:level": 2,
    "sfomuseum:date_end": "2026-12-06",
    "sfomuseum:date_start": "2026-05-23",
    "sfomuseum:description": "",
    "sfomuseum:exhibition_id": 2210,
    "sfomuseum:gallery_id": [
      64
    ],
    "sfomuseum:has_brochure": 0,
    "sfomuseum:has_catalog": 0,
    "sfomuseum:hashtag": "",
    "sfomuseum:on_display": 1,
    "sfomuseum:placetype": "exhibition",
    "sfomuseum:post_security": 0,
    "sfomuseum:type": "Photography",
    "src:geom": "sfomuseum",
    "wof:belongsto": [
      1947304067,
      102527513,
      1947304563,
      102191575,
      85633793,
      102087579,
      1947304567,
      85922583,
      554784711,
      85688637,
      1947304447,
      102085387
    ],
    "wof:country": "US",
    "wof:created": 1779262366,
    "wof:geomhash": "479516ee048cc0d3a63c59028d12b3f1",
    "wof:hierarchy": [
      {
        "building_id": 1947304067,
        "campus_id": 102527513,
        "concourse_id": 1947304563,
        "continent_id": 102191575,
        "country_id": 85633793,
        "county_id": 102087579,
        "enclosure_id": 1947304567,
        "installation_id": 2031305989,
        "locality_id": 85922583,
        "postalcode_id": 554784711,
        "region_id": 85688637,
        "wing_id": 1947304447
      },
      {
        "building_id": 1947304067,
        "campus_id": 102527513,
        "concourse_id": 1947304563,
        "continent_id": 102191575,
        "country_id": 85633793,
        "county_id": 102085387,
        "enclosure_id": 1947304567,
        "installation_id": 2031305989,
        "region_id": 85688637,
        "wing_id": 1947304447
      }
    ],
    "wof:id": 2031305989,
    "wof:lastmodified": 1779348788,
    "wof:name": "Eric Ruby: Kamper Sweet Kamper",
    "wof:parent_id": 1947304567,
    "wof:placetype": "installation",
    "wof:placetype_alt": "exhibition",
    "wof:repo": "sfomuseum-data-exhibition",
    "wof:superseded_by": [],
    "wof:supersedes": []
  },
  "bbox": [
    -122.3849209067321,
    37.617923793113434,
    -122.3849209067321,
    37.617923793113434
  ],
  "geometry": {"type":"MultiPoint","coordinates":[[-122.3849209067321,37.617923793113434]]}
}
