{
  "id": 2048166439,
  "type": "Feature",
  "properties": {
    "date:cessation_lower": "2027-05-23",
    "date:cessation_upper": "2027-05-23",
    "date:inception_lower": "2026-06-27",
    "date:inception_upper": "2026-06-27",
    "edtf:cessation": "2027-05-23",
    "edtf:inception": "2026-06-27",
    "flysfo:url": "",
    "geom:area": 0,
    "geom:bbox": "-122.385092,37.612132,-122.385092,37.612132",
    "geom:latitude": 37.61213224985321,
    "geom:longitude": -122.38509193828816,
    "mz:is_current": 1,
    "sfo:level": 2,
    "sfomuseum:date_end": "2027-05-23",
    "sfomuseum:date_start": "2026-06-27",
    "sfomuseum:description": "",
    "sfomuseum:exhibition_id": 2151,
    "sfomuseum:gallery_id": [
      71
    ],
    "sfomuseum:has_brochure": 0,
    "sfomuseum:has_catalog": 0,
    "sfomuseum:hashtag": "",
    "sfomuseum:on_display": 1,
    "sfomuseum:placetype": "exhibition",
    "sfomuseum:post_security": 1,
    "sfomuseum:type": "NonAviation",
    "src:geom": "sfomuseum",
    "wof:belongsto": [
      1947304067,
      102527513,
      1947304261,
      102191575,
      85633793,
      102087579,
      1947304329,
      85922583,
      554784711,
      85688637,
      1947304259,
      102085387
    ],
    "wof:country": "US",
    "wof:created": 1787794499,
    "wof:geomhash": "c8d195756ff78c4cf17b9c0d283f8276",
    "wof:hierarchy": [
      {
        "building_id": 1947304067,
        "campus_id": 102527513,
        "concourse_id": 1947304261,
        "continent_id": 102191575,
        "country_id": 85633793,
        "county_id": 102087579,
        "enclosure_id": 1947304329,
        "installation_id": 2048166439,
        "locality_id": 85922583,
        "postalcode_id": 554784711,
        "region_id": 85688637,
        "wing_id": 1947304259
      },
      {
        "building_id": 1947304067,
        "campus_id": 102527513,
        "concourse_id": 1947304261,
        "continent_id": 102191575,
        "country_id": 85633793,
        "county_id": 102085387,
        "enclosure_id": 1947304329,
        "installation_id": 2048166439,
        "region_id": 85688637,
        "wing_id": 1947304259
      }
    ],
    "wof:id": 2048166439,
    "wof:lastmodified": 1787794499,
    "wof:name": "Heroes of the City: Early Firefighters of the San Francisco Fire Department",
    "wof:parent_id": 1947304329,
    "wof:placetype": "installation",
    "wof:placetype_alt": "exhibition",
    "wof:repo": "sfomuseum-data-exhibition",
    "wof:superseded_by": [],
    "wof:supersedes": []
  },
  "bbox": [
    -122.38509193828816,
    37.61213224985321,
    -122.38509193828816,
    37.61213224985321
  ],
  "geometry": {"type":"MultiPoint","coordinates":[[-122.38509193828816,37.61213224985321]]}
}
